[
    {
        "OBJECT_NAME": "SHIJIAN-16 (SJ-16)",
        "OBJECT_ID": "2013-057A",
        "EPOCH": "2026-05-16T19:16:05.924640",
        "MEAN_MOTION": 14.92525406,
        "ECCENTRICITY": 0.0016857,
        "INCLINATION": 74.9738,
        "RA_OF_ASC_NODE": 56.1201,
        "ARG_OF_PERICENTER": 302.8475,
        "MEAN_ANOMALY": 57.109,
        "EPHEMERIS_TYPE": 0,
        "CLASSIFICATION_TYPE": "U",
        "NORAD_CAT_ID": 39358,
        "ELEMENT_SET_NO": 999,
        "REV_AT_EPOCH": 68166,
        "BSTAR": 0.00012897,
        "MEAN_MOTION_DOT": 1.299e-05,
        "MEAN_MOTION_DDOT": 0
    },
    {
        "OBJECT_NAME": "SL-4 R/B",
        "OBJECT_ID": "2014-021B",
        "EPOCH": "2026-05-16T14:57:00.065088",
        "MEAN_MOTION": 15.41192326,
        "ECCENTRICITY": 0.0092157,
        "INCLINATION": 51.6077,
        "RA_OF_ASC_NODE": 5.3163,
        "ARG_OF_PERICENTER": 351.3909,
        "MEAN_ANOMALY": 8.549,
        "EPHEMERIS_TYPE": 0,
        "CLASSIFICATION_TYPE": "U",
        "NORAD_CAT_ID": 39679,
        "ELEMENT_SET_NO": 999,
        "REV_AT_EPOCH": 66674,
        "BSTAR": 0.00021849,
        "MEAN_MOTION_DOT": 0.00010276,
        "MEAN_MOTION_DDOT": 0
    },
    {
        "OBJECT_NAME": "ALOS-2",
        "OBJECT_ID": "2014-029A",
        "EPOCH": "2026-05-16T18:10:50.138400",
        "MEAN_MOTION": 14.79474457,
        "ECCENTRICITY": 0.0001581,
        "INCLINATION": 97.9222,
        "RA_OF_ASC_NODE": 234.3706,
        "ARG_OF_PERICENTER": 89.3925,
        "MEAN_ANOMALY": 270.7468,
        "EPHEMERIS_TYPE": 0,
        "CLASSIFICATION_TYPE": "U",
        "NORAD_CAT_ID": 39766,
        "ELEMENT_SET_NO": 999,
        "REV_AT_EPOCH": 64693,
        "BSTAR": 0.00011524,
        "MEAN_MOTION_DOT": 8.09e-06,
        "MEAN_MOTION_DDOT": 0
    },
    {
        "OBJECT_NAME": "YAOGAN-29",
        "OBJECT_ID": "2015-069A",
        "EPOCH": "2026-05-16T20:56:08.390976",
        "MEAN_MOTION": 14.83056036,
        "ECCENTRICITY": 0.0002879,
        "INCLINATION": 98.0051,
        "RA_OF_ASC_NODE": 165.4532,
        "ARG_OF_PERICENTER": 104.9261,
        "MEAN_ANOMALY": 255.2271,
        "EPHEMERIS_TYPE": 0,
        "CLASSIFICATION_TYPE": "U",
        "NORAD_CAT_ID": 41038,
        "ELEMENT_SET_NO": 999,
        "REV_AT_EPOCH": 56598,
        "BSTAR": -1.16e-05,
        "MEAN_MOTION_DOT": -1.48e-06,
        "MEAN_MOTION_DDOT": 0
    },
    {
        "OBJECT_NAME": "ASTRO-H (HITOMI)",
        "OBJECT_ID": "2016-012A",
        "EPOCH": "2026-05-16T17:03:21.127680",
        "MEAN_MOTION": 15.10374581,
        "ECCENTRICITY": 0.0009602,
        "INCLINATION": 30.9993,
        "RA_OF_ASC_NODE": 277.4529,
        "ARG_OF_PERICENTER": 296.5928,
        "MEAN_ANOMALY": 63.3726,
        "EPHEMERIS_TYPE": 0,
        "CLASSIFICATION_TYPE": "U",
        "NORAD_CAT_ID": 41337,
        "ELEMENT_SET_NO": 999,
        "REV_AT_EPOCH": 56252,
        "BSTAR": 9.2157e-05,
        "MEAN_MOTION_DOT": 1.647e-05,
        "MEAN_MOTION_DDOT": 0
    },
    {
        "OBJECT_NAME": "HXMT (HUIYAN)",
        "OBJECT_ID": "2017-034A",
        "EPOCH": "2026-05-16T21:16:14.901312",
        "MEAN_MOTION": 15.18173551,
        "ECCENTRICITY": 0.0032673,
        "INCLINATION": 43.0155,
        "RA_OF_ASC_NODE": 357.2935,
        "ARG_OF_PERICENTER": 305.1444,
        "MEAN_ANOMALY": 54.6344,
        "EPHEMERIS_TYPE": 0,
        "CLASSIFICATION_TYPE": "U",
        "NORAD_CAT_ID": 42758,
        "ELEMENT_SET_NO": 999,
        "REV_AT_EPOCH": 49290,
        "BSTAR": 0.00018925,
        "MEAN_MOTION_DOT": 3.748e-05,
        "MEAN_MOTION_DDOT": 0
    },
    {
        "OBJECT_NAME": "SAOCOM 1A",
        "OBJECT_ID": "2018-076A",
        "EPOCH": "2026-05-16T19:28:05.939904",
        "MEAN_MOTION": 14.82149592,
        "ECCENTRICITY": 0.0001535,
        "INCLINATION": 97.8882,
        "RA_OF_ASC_NODE": 324.0158,
        "ARG_OF_PERICENTER": 84.3068,
        "MEAN_ANOMALY": 275.8321,
        "EPHEMERIS_TYPE": 0,
        "CLASSIFICATION_TYPE": "U",
        "NORAD_CAT_ID": 43641,
        "ELEMENT_SET_NO": 999,
        "REV_AT_EPOCH": 41145,
        "BSTAR": 5.9937e-05,
        "MEAN_MOTION_DOT": 4.25e-06,
        "MEAN_MOTION_DDOT": 0
    },
    {
        "OBJECT_NAME": "H-2A R/B",
        "OBJECT_ID": "2018-084L",
        "EPOCH": "2026-05-16T20:04:38.358048",
        "MEAN_MOTION": 15.43914718,
        "ECCENTRICITY": 0.0024576,
        "INCLINATION": 98.8621,
        "RA_OF_ASC_NODE": 8.9062,
        "ARG_OF_PERICENTER": 143.9546,
        "MEAN_ANOMALY": 216.3361,
        "EPHEMERIS_TYPE": 0,
        "CLASSIFICATION_TYPE": "U",
        "NORAD_CAT_ID": 43682,
        "ELEMENT_SET_NO": 999,
        "REV_AT_EPOCH": 41628,
        "BSTAR": 0.00035634,
        "MEAN_MOTION_DOT": 0.00016273,
        "MEAN_MOTION_DDOT": 0
    },
    {
        "OBJECT_NAME": "SAOCOM 1B",
        "OBJECT_ID": "2020-059A",
        "EPOCH": "2026-05-16T20:13:02.335296",
        "MEAN_MOTION": 14.82144636,
        "ECCENTRICITY": 0.0001505,
        "INCLINATION": 97.8884,
        "RA_OF_ASC_NODE": 323.1402,
        "ARG_OF_PERICENTER": 83.983,
        "MEAN_ANOMALY": 276.1554,
        "EPHEMERIS_TYPE": 0,
        "CLASSIFICATION_TYPE": "U",
        "NORAD_CAT_ID": 46265,
        "ELEMENT_SET_NO": 999,
        "REV_AT_EPOCH": 30884,
        "BSTAR": 5.9945e-07,
        "MEAN_MOTION_DOT": -4.7e-07,
        "MEAN_MOTION_DDOT": 0
    },
    {
        "OBJECT_NAME": "CSS (TIANHE)",
        "OBJECT_ID": "2021-035A",
        "EPOCH": "2026-05-16T17:48:35.699040",
        "MEAN_MOTION": 15.6061521,
        "ECCENTRICITY": 0.0007344,
        "INCLINATION": 41.4667,
        "RA_OF_ASC_NODE": 153.2288,
        "ARG_OF_PERICENTER": 244.4572,
        "MEAN_ANOMALY": 115.5507,
        "EPHEMERIS_TYPE": 0,
        "CLASSIFICATION_TYPE": "U",
        "NORAD_CAT_ID": 48274,
        "ELEMENT_SET_NO": 999,
        "REV_AT_EPOCH": 28825,
        "BSTAR": 0.00015443,
        "MEAN_MOTION_DOT": 0.00012846,
        "MEAN_MOTION_DDOT": 0
    },
    {
        "OBJECT_NAME": "COSMOS 2550",
        "OBJECT_ID": "2021-056A",
        "EPOCH": "2026-05-16T18:56:38.336640",
        "MEAN_MOTION": 15.33913785,
        "ECCENTRICITY": 0.0008489,
        "INCLINATION": 67.1425,
        "RA_OF_ASC_NODE": 194.8814,
        "ARG_OF_PERICENTER": 266.4939,
        "MEAN_ANOMALY": 93.5245,
        "EPHEMERIS_TYPE": 0,
        "CLASSIFICATION_TYPE": "U",
        "NORAD_CAT_ID": 48865,
        "ELEMENT_SET_NO": 999,
        "REV_AT_EPOCH": 27390,
        "BSTAR": 0.00012187,
        "MEAN_MOTION_DOT": 3.83e-05,
        "MEAN_MOTION_DDOT": 0
    },
    {
        "OBJECT_NAME": "CZ-2C R/B",
        "OBJECT_ID": "2022-058K",
        "EPOCH": "2026-05-16T19:19:28.538688",
        "MEAN_MOTION": 15.59410615,
        "ECCENTRICITY": 0.0035832,
        "INCLINATION": 50.1868,
        "RA_OF_ASC_NODE": 326.5213,
        "ARG_OF_PERICENTER": 133.7573,
        "MEAN_ANOMALY": 226.6375,
        "EPHEMERIS_TYPE": 0,
        "CLASSIFICATION_TYPE": "U",
        "NORAD_CAT_ID": 52794,
        "ELEMENT_SET_NO": 999,
        "REV_AT_EPOCH": 22074,
        "BSTAR": 0.00046482,
        "MEAN_MOTION_DOT": 0.00038326,
        "MEAN_MOTION_DDOT": 0
    },
    {
        "OBJECT_NAME": "CZ-2C R/B",
        "OBJECT_ID": "2022-132E",
        "EPOCH": "2026-05-16T18:53:05.649216",
        "MEAN_MOTION": 15.67981153,
        "ECCENTRICITY": 0.0015466,
        "INCLINATION": 97.2914,
        "RA_OF_ASC_NODE": 142.4963,
        "ARG_OF_PERICENTER": 184.2788,
        "MEAN_ANOMALY": 175.8344,
        "EPHEMERIS_TYPE": 0,
        "CLASSIFICATION_TYPE": "U",
        "NORAD_CAT_ID": 54039,
        "ELEMENT_SET_NO": 999,
        "REV_AT_EPOCH": 20102,
        "BSTAR": 0.00041298,
        "MEAN_MOTION_DOT": 0.00045971,
        "MEAN_MOTION_DDOT": 0
    }
]