SHIJIAN-16 (SJ-16)      
1 39358U 13057A   26136.80284635  .00001299  00000+0  12897-3 0  9998
2 39358  74.9738  56.1201 0016857 302.8475  57.1090 14.92525406681666
SL-4 R/B                
1 39679U 14021B   26136.62291742  .00010276  00000+0  21849-3 0  9995
2 39679  51.6077   5.3163 0092157 351.3909   8.5490 15.41192326666743
ALOS-2                  
1 39766U 14029A   26136.75752475  .00000809  00000+0  11524-3 0  9999
2 39766  97.9222 234.3706 0001581  89.3925 270.7468 14.79474457646934
YAOGAN-29               
1 41038U 15069A   26136.87231934 -.00000148  00000+0 -11600-4 0  9998
2 41038  98.0051 165.4532 0002879 104.9261 255.2271 14.83056036565989
ASTRO-H (HITOMI)        
1 41337U 16012A   26136.71066120  .00001647  00000+0  92157-4 0  9994
2 41337  30.9993 277.4529 0009602 296.5928  63.3726 15.10374581562529
HXMT (HUIYAN)           
1 42758U 17034A   26136.88628358  .00003748  00000+0  18925-3 0  9996
2 42758  43.0155 357.2935 0032673 305.1444  54.6344 15.18173551492909
SAOCOM 1A               
1 43641U 18076A   26136.81117986  .00000425  00000+0  59937-4 0  9996
2 43641  97.8882 324.0158 0001535  84.3068 275.8321 14.82149592411456
H-2A R/B                
1 43682U 18084L   26136.83655507  .00016273  00000+0  35634-3 0  9993
2 43682  98.8621   8.9062 0024576 143.9546 216.3361 15.43914718416286
SAOCOM 1B               
1 46265U 20059A   26136.84238814 -.00000047  00000+0  59945-6 0  9994
2 46265  97.8884 323.1402 0001505  83.9830 276.1554 14.82144636308848
CSS (TIANHE)            
1 48274U 21035A   26136.74207985  .00012846  00000+0  15443-3 0  9996
2 48274  41.4667 153.2288 0007344 244.4572 115.5507 15.60615210288256
COSMOS 2550             
1 48865U 21056A   26136.78933260  .00003830  00000+0  12187-3 0  9996
2 48865  67.1425 194.8814 0008489 266.4939  93.5245 15.33913785273905
CZ-2C R/B               
1 52794U 22058K   26136.80519142  .00038326  00000+0  46482-3 0  9990
2 52794  50.1868 326.5213 0035832 133.7573 226.6375 15.59410615220742
CZ-2C R/B               
1 54039U 22132E   26136.78687094  .00045971  00000+0  41298-3 0  9990
2 54039  97.2914 142.4963 0015466 184.2788 175.8344 15.67981153201027
